0 COSMOS 2251 DEB
1 35840U 93036ATN 13284.22611486  .00002911  00000-0  14398-2 0  2789
2 35840 073.9379 247.0097 0158346 012.6267 348.0424 14.11459985229038
0 COSMOS 2251 DEB
1 35840U 93036ATN 13285.28921148  .00003002  00000-0  14842-2 0  2792
2 35840 073.9397 245.1208 0158263 010.5054 349.9777 14.11468620229183
0 COSMOS 2251 DEB
1 35840U 93036ATN 13288.19505964  .00003266  00000-0  16031-2 0  2805
2 35840 073.9291 239.9544 0162296 004.5214 355.8239 14.11492955229594
0 COSMOS 2251 DEB
1 35840U 93036ATN 13289.54164003  .00003337  00000-0  16328-2 0  2819
2 35840 073.9228 237.5729 0164177 003.1534 357.0551 14.11503306229788
0 COSMOS 2251 DEB
1 35840U 93036ATN 13290.53386328  .00003397  00000-0  16588-2 0  2821
2 35840 073.9204 235.8180 0165255 001.9137 358.2657 14.11511491229927
0 COSMOS 2251 DEB
1 35840U 93036ATN 13291.52607849  .00003468  00000-0  16903-2 0  2836
2 35840 073.9183 234.0600 0166334 000.4435 359.7050 14.11520308230062
0 COSMOS 2251 DEB
1 35840U 93036ATN 13295.14052989  .00005310  00000-0  26050-2 0  2840
2 35840 073.9413 227.6319 0159443 351.0693 009.5118 14.11584606230579
0 COSMOS 2251 DEB
1 35840U 93036ATN 13295.49472761  .00004305  00000-0  21199-2 0  2855
2 35840 073.9453 227.0004 0157817 349.8675 009.8964 14.11576050230628
